{
  "type": "FeatureCollection",
  "features": [
    {
      "type": "Feature",
      "properties": {
        "norad_id": 66635,
        "name": "STARLINK-35955",
        "group": "last-30-days",
        "lat": 52.40201517038757,
        "lon": -74.83311321174224,
        "alt_km": 354.4876418980157,
        "timestamp": "2025-12-08T08:58:59.558106+00:00",
        "meta_object_name": "STARLINK-35955",
        "meta_object_id": "2025-271U",
        "meta_epoch": "2025-12-07T22:00:03.000096",
        "meta_mean_motion": 15.70798049,
        "meta_eccentricity": 7.576e-05,
        "meta_inclination": 53.1591,
        "meta_ra_of_asc_node": 210.6066,
        "meta_arg_of_pericenter": 89.056,
        "meta_mean_anomaly": 285.429,
        "meta_ephemeris_type": 0,
        "meta_classification_type": "U",
        "meta_norad_cat_id": 66635,
        "meta_element_set_no": 999,
        "meta_rev_at_epoch": 346,
        "meta_bstar": -0.017524828,
        "meta_mean_motion_dot": -0.01964618,
        "meta_mean_motion_ddot": 0,
        "tle_line1": "1 66635U 25271U   25341.91670139 -.01964618  00000+0 -17525-1 0  9991",
        "tle_line2": "2 66635  53.1591 210.6066 0000757  89.0560 285.4290 15.70798049  3463"
      },
      "geometry": {
        "type": "Point",
        "coordinates": [
          -74.83311321174224,
          52.40201517038757
        ]
      }
    },
    {
      "type": "Feature",
      "properties": {
        "norad_id": 66636,
        "name": "STARLINK-35968",
        "group": "last-30-days",
        "lat": 52.711972504766194,
        "lon": -71.71614887602013,
        "alt_km": 354.33932987747085,
        "timestamp": "2025-12-08T08:58:59.558116+00:00",
        "meta_object_name": "STARLINK-35968",
        "meta_object_id": "2025-271V",
        "meta_epoch": "2025-12-07T22:00:03.000096",
        "meta_mean_motion": 15.70774814,
        "meta_eccentricity": 9.179e-05,
        "meta_inclination": 53.1591,
        "meta_ra_of_asc_node": 210.6023,
        "meta_arg_of_pericenter": 85.3883,
        "meta_mean_anomaly": 291.0395,
        "meta_ephemeris_type": 0,
        "meta_classification_type": "U",
        "meta_norad_cat_id": 66636,
        "meta_element_set_no": 999,
        "meta_rev_at_epoch": 346,
        "meta_bstar": -0.017387202,
        "meta_mean_motion_dot": -0.01949397,
        "meta_mean_motion_ddot": 0,
        "tle_line1": "1 66636U 25271V   25341.91670139 -.01949397  00000+0 -17387-1 0  9995",
        "tle_line2": "2 66636  53.1591 210.6023 0000917  85.3883 291.0395 15.70774814  3465"
      },
      "geometry": {
        "type": "Point",
        "coordinates": [
          -71.71614887602013,
          52.711972504766194
        ]
      }
    },
    {
      "type": "Feature",
      "properties": {
        "norad_id": 66637,
        "name": "STARLINK-35953",
        "group": "last-30-days",
        "lat": 52.938298963746696,
        "lon": -68.56881944353107,
        "alt_km": 354.4340137801437,
        "timestamp": "2025-12-08T08:58:59.558126+00:00",
        "meta_object_name": "STARLINK-35953",
        "meta_object_id": "2025-271W",
        "meta_epoch": "2025-12-07T22:00:03.000096",
        "meta_mean_motion": 15.70795522,
        "meta_eccentricity": 7.359e-05,
        "meta_inclination": 53.159,
        "meta_ra_of_asc_node": 210.5985,
        "meta_arg_of_pericenter": 91.8308,
        "meta_mean_anomaly": 286.4916,
        "meta_ephemeris_type": 0,
        "meta_classification_type": "U",
        "meta_norad_cat_id": 66637,
        "meta_element_set_no": 999,
        "meta_rev_at_epoch": 346,
        "meta_bstar": -0.017523826,
        "meta_mean_motion_dot": -0.01964317,
        "meta_mean_motion_ddot": 0,
        "tle_line1": "1 66637U 25271W   25341.91670139 -.01964317  00000+0 -17524-1 0  9998",
        "tle_line2": "2 66637  53.1590 210.5985 0000735  91.8308 286.4916 15.70795522  3469"
      },
      "geometry": {
        "type": "Point",
        "coordinates": [
          -68.56881944353107,
          52.938298963746696
        ]
      }
    },
    {
      "type": "Feature",
      "properties": {
        "norad_id": 66638,
        "name": "STARLINK-35972",
        "group": "last-30-days",
        "lat": 53.080804732155165,
        "lon": -65.38746727427394,
        "alt_km": 354.41888966087936,
        "timestamp": "2025-12-08T08:58:59.558136+00:00",
        "meta_object_name": "STARLINK-35972",
        "meta_object_id": "2025-271X",
        "meta_epoch": "2025-12-07T22:00:03.000096",
        "meta_mean_motion": 15.70791783,
        "meta_eccentricity": 6.823e-05,
        "meta_inclination": 53.159,
        "meta_ra_of_asc_node": 210.5953,
        "meta_arg_of_pericenter": 82.0188,
        "meta_mean_anomaly": 298.2183,
        "meta_ephemeris_type": 0,
        "meta_classification_type": "U",
        "meta_norad_cat_id": 66638,
        "meta_element_set_no": 999,
        "meta_rev_at_epoch": 346,
        "meta_bstar": -0.017445998,
        "meta_mean_motion_dot": -0.01956296,
        "meta_mean_motion_ddot": 0,
        "tle_line1": "1 66638U 25271X   25341.91670139 -.01956296  00000+0 -17446-1 0  9999",
        "tle_line2": "2 66638  53.1590 210.5953 0000682  82.0188 298.2183 15.70791783  3466"
      },
      "geometry": {
        "type": "Point",
        "coordinates": [
          -65.38746727427394,
          53.080804732155165
        ]
      }
    },
    {
      "type": "Feature",
      "properties": {
        "norad_id": 66639,
        "name": "STARLINK-35908",
        "group": "last-30-days",
        "lat": 53.13804948061888,
        "lon": -62.19313409905451,
        "alt_km": 354.383109277589,
        "timestamp": "2025-12-08T08:58:59.558146+00:00",
        "meta_object_name": "STARLINK-35908",
        "meta_object_id": "2025-271Y",
        "meta_epoch": "2025-12-07T22:00:03.000096",
        "meta_mean_motion": 15.7079436,
        "meta_eccentricity": 7.371e-05,
        "meta_inclination": 53.1592,
        "meta_ra_of_asc_node": 210.5905,
        "meta_arg_of_pericenter": 85.1367,
        "meta_mean_anomaly": 297.0196,
        "meta_ephemeris_type": 0,
        "meta_classification_type": "U",
        "meta_norad_cat_id": 66639,
        "meta_element_set_no": 999,
        "meta_rev_at_epoch": 346,
        "meta_bstar": -0.017502318,
        "meta_mean_motion_dot": -0.01962103,
        "meta_mean_motion_ddot": 0,
        "tle_line1": "1 66639U 25271Y   25341.91670139 -.01962103  00000+0 -17502-1 0  9997",
        "tle_line2": "2 66639  53.1592 210.5905 0000737  85.1367 297.0196 15.70794360  3465"
      },
      "geometry": {
        "type": "Point",
        "coordinates": [
          -62.19313409905451,
          53.13804948061888
        ]
      }
    },
    {
      "type": "Feature",
      "properties": {
        "norad_id": 66640,
        "name": "STARLINK-35921",
        "group": "last-30-days",
        "lat": 53.10916363224061,
        "lon": -59.00116461120652,
        "alt_km": 354.39834000632436,
        "timestamp": "2025-12-08T08:58:59.558156+00:00",
        "meta_object_name": "STARLINK-35921",
        "meta_object_id": "2025-271Z",
        "meta_epoch": "2025-12-07T22:00:03.000096",
        "meta_mean_motion": 15.70797687,
        "meta_eccentricity": 7.335e-05,
        "meta_inclination": 53.159,
        "meta_ra_of_asc_node": 210.5867,
        "meta_arg_of_pericenter": 94.9194,
        "meta_mean_anomaly": 289.1495,
        "meta_ephemeris_type": 0,
        "meta_classification_type": "U",
        "meta_norad_cat_id": 66640,
        "meta_element_set_no": 999,
        "meta_rev_at_epoch": 346,
        "meta_bstar": -0.017519643,
        "meta_mean_motion_dot": -0.01964061,
        "meta_mean_motion_ddot": 0,
        "tle_line1": "1 66640U 25271Z   25341.91670139 -.01964061  00000+0 -17520-1 0  9994",
        "tle_line2": "2 66640  53.1590 210.5867 0000733  94.9194 289.1495 15.70797687  3463"
      },
      "geometry": {
        "type": "Point",
        "coordinates": [
          -59.00116461120652,
          53.10916363224061
        ]
      }
    },
    {
      "type": "Feature",
      "properties": {
        "norad_id": 66641,
        "name": "STARLINK-35923",
        "group": "last-30-days",
        "lat": 52.149727122777215,
        "lon": -46.44572845448103,
        "alt_km": 354.4748399611408,
        "timestamp": "2025-12-08T08:58:59.558166+00:00",
        "meta_object_name": "STARLINK-35923",
        "meta_object_id": "2025-271AA",
        "meta_epoch": "2025-12-07T22:00:03.000096",
        "meta_mean_motion": 15.70794595,
        "meta_eccentricity": 7.895e-05,
        "meta_inclination": 53.1591,
        "meta_ra_of_asc_node": 210.5699,
        "meta_arg_of_pericenter": 97.7007,
        "meta_mean_anomaly": 294.037,
        "meta_ephemeris_type": 0,
        "meta_classification_type": "U",
        "meta_norad_cat_id": 66641,
        "meta_element_set_no": 999,
        "meta_rev_at_epoch": 346,
        "meta_bstar": -0.017479646,
        "meta_mean_motion_dot": -0.01959913,
        "meta_mean_motion_ddot": 0,
        "tle_line1": "1 66641U 25271AA  25341.91670139 -.01959913  00000+0 -17480-1 0  9990",
        "tle_line2": "2 66641  53.1591 210.5699 0000789  97.7007 294.0370 15.70794595  3465"
      },
      "geometry": {
        "type": "Point",
        "coordinates": [
          -46.44572845448103,
          52.149727122777215
        ]
      }
    }
  ]
}